$$SOE
2461302.500000000, A.D. 2026-Sep-19 00:00:00.0000, 3.122340819519483E+07, 4.726791929646670E+08, 1.689878052371635E+08,
2461309.500000000, A.D. 2026-Sep-26 00:00:00.0000, 2.140760229387537E+07, 4.729993687450949E+08, 1.679149215923592E+08,
2461316.500000000, A.D. 2026-Oct-03 00:00:00.0000, 1.158350473088296E+07, 4.731384299393927E+08, 1.667777113271892E+08,
2461323.500000000, A.D. 2026-Oct-10 00:00:00.0000, 1.754858744522274E+06, 4.730957020383383E+08, 1.655763910714812E+08,
2461330.500000000, A.D. 2026-Oct-17 00:00:00.0000, -8.074564669319209E+06, 4.728705791391877E+08, 1.643112047720951E+08,
2461337.500000000, A.D. 2026-Oct-24 00:00:00.0000, -1.790096820755930E+07, 4.724625251274254E+08, 1.629824239463074E+08,
2461344.500000000, A.D. 2026-Oct-31 00:00:00.0000, -2.772052967447644E+07, 4.718710746789952E+08, 1.615903479012590E+08,
2461351.500000000, A.D. 2026-Nov-07 00:00:00.0000, -3.752940302183419E+07, 4.710958341553406E+08, 1.601353038940788E+08,
2461358.500000000, A.D. 2026-Nov-14 00:00:00.0000, -4.732371881403434E+07, 4.701364832773574E+08, 1.586176472867362E+08,
2461365.500000000, A.D. 2026-Nov-21 00:00:00.0000, -5.709958592940708E+07, 4.689927782591271E+08, 1.570377619175375E+08,
2461372.500000000, A.D. 2026-Nov-28 00:00:00.0000, -6.685309549420182E+07, 4.676645533904184E+08, 1.553960605338074E+08,
2461379.500000000, A.D. 2026-Dec-05 00:00:00.0000, -7.658032342996806E+07, 4.661517204077195E+08, 1.536929848987322E+08,
2461386.500000000, A.D. 2026-Dec-12 00:00:00.0000, -8.627733144964932E+07, 4.644542687631590E+08, 1.519290058112640E+08,
2461393.500000000, A.D. 2026-Dec-19 00:00:00.0000, -9.594016838853283E+07, 4.625722667954033E+08, 1.501046232118418E+08,
2461400.500000000, A.D. 2026-Dec-26 00:00:00.0000, -1.055648720121041E+08, 4.605058629308754E+08, 1.482203663147571E+08,
2461407.500000000, A.D. 2027-Jan-02 00:00:00.0000, -1.151474710255212E+08, 4.582552867212559E+08, 1.462767937255200E+08,
2461414.500000000, A.D. 2027-Jan-09 00:00:00.0000, -1.246839871684494E+08, 4.558208497350885E+08, 1.442744935338933E+08,
2461421.500000000, A.D. 2027-Jan-16 00:00:00.0000, -1.341704373604624E+08, 4.532029463102846E+08, 1.422140833798864E+08,
2461428.500000000, A.D. 2027-Jan-23 00:00:00.0000, -1.436028358514428E+08, 4.504020541257688E+08, 1.400962104848391E+08,
2461435.500000000, A.D. 2027-Jan-30 00:00:00.0000, -1.529771961896902E+08, 4.474187345420510E+08, 1.379215516258084E+08,
2461442.500000000, A.D. 2027-Feb-06 00:00:00.0000, -1.622895325836087E+08, 4.442536330481811E+08, 1.356908130413545E+08,
2461449.500000000, A.D. 2027-Feb-13 00:00:00.0000, -1.715358611180167E+08, 4.409074810327541E+08, 1.334047304101507E+08,
2461456.500000000, A.D. 2027-Feb-20 00:00:00.0000, -1.807122031885098E+08, 4.373810980866132E+08, 1.310640690541492E+08,
2461463.500000000, A.D. 2027-Feb-27 00:00:00.0000, -1.898145897559043E+08, 4.336753916202224E+08, 1.286696239741762E+08,
2461470.500000000, A.D. 2027-Mar-06 00:00:00.0000, -1.988390634021851E+08, 4.297913557142400E+08, 1.262222195970156E+08,
2461477.500000000, A.D. 2027-Mar-13 00:00:00.0000, -2.077816797877783E+08, 4.257300712516020E+08, 1.237227095481617E+08,
2461484.500000000, A.D. 2027-Mar-20 00:00:00.0000, -2.166385096371694E+08, 4.214927064951378E+08, 1.211719764850705E+08,
2461491.500000000, A.D. 2027-Mar-27 00:00:00.0000, -2.254056410481854E+08, 4.170805175592021E+08, 1.185709319265459E+08,
2461498.500000000, A.D. 2027-Apr-03 00:00:00.0000, -2.340791819196369E+08, 4.124948487249770E+08, 1.159205160549332E+08,
2461505.500000000, A.D. 2027-Apr-10 00:00:00.0000, -2.426552624336619E+08, 4.077371326201303E+08, 1.132216974867421E+08,
2461512.500000000, A.D. 2027-Apr-17 00:00:00.0000, -2.511300375681286E+08, 4.028088902463045E+08, 1.104754730079719E+08,
2461519.500000000, A.D. 2027-Apr-24 00:00:00.0000, -2.594996895571461E+08, 3.977117307901097E+08, 1.076828672613157E+08,
2461526.500000000, A.D. 2027-May-01 00:00:00.0000, -2.677604299971747E+08, 3.924473512432622E+08, 1.048449323596221E+08,
2461533.500000000, A.D. 2027-May-08 00:00:00.0000, -2.759085012885853E+08, 3.870175365781558E+08, 1.019627474582800E+08,
2461540.500000000, A.D. 2027-May-15 00:00:00.0000, -2.839401789072023E+08, 3.814241614310163E+08, 9.903741850176124E+07,
2461547.500000000, A.D. 2027-May-22 00:00:00.0000, -2.918517760662907E+08, 3.756691907006381E+08, 9.607007807598945E+07,
2461554.500000000, A.D. 2027-May-29 00:00:00.0000, -2.996396474079335E+08, 3.697546775918936E+08, 9.306188493806480E+07,
2461561.500000000, A.D. 2027-Jun-05 00:00:00.0000, -3.073001908359319E+08, 3.636827622324908E+08, 9.001402339784476E+07,
2461568.500000000, A.D. 2027-Jun-12 00:00:00.0000, -3.148298494956954E+08, 3.574556712943366E+08, 8.692770277134009E+07,
2461575.500000000, A.D. 2027-Jun-19 00:00:00.0000, -3.222251142284358E+08, 3.510757176842923E+08, 8.380415686017357E+07,
2461582.500000000, A.D. 2027-Jun-26 00:00:00.0000, -3.294825262161235E+08, 3.445453000418974E+08, 8.064464341023174E+07,
2461589.500000000, A.D. 2027-Jul-03 00:00:00.0000, -3.365986796812456E+08, 3.378669020512417E+08, 7.745044353832465E+07,
2461596.500000000, A.D. 2027-Jul-10 00:00:00.0000, -3.435702246008384E+08, 3.310430915749410E+08, 7.422286112458824E+07,
2461603.500000000, A.D. 2027-Jul-17 00:00:00.0000, -3.503938693947380E+08, 3.240765195709378E+08, 7.096322216461433E+07,
2461610.500000000, A.D. 2027-Jul-24 00:00:00.0000, -3.570663834277456E+08, 3.169699187292106E+08, 6.767287406234182E+07,
2461617.500000000, A.D. 2027-Jul-31 00:00:00.0000, -3.635845989100737E+08, 3.097261020639554E+08, 6.435318484568819E+07,
2461624.500000000, A.D. 2027-Aug-07 00:00:00.0000, -3.699454123924321E+08, 3.023479626130437E+08, 6.100554241784212E+07,
2461631.500000000, A.D. 2027-Aug-14 00:00:00.0000, -3.761457881527744E+08, 2.948384739920821E+08, 5.763135403495191E+07,
2461638.500000000, A.D. 2027-Aug-21 00:00:00.0000, -3.821827628510215E+08, 2.872006884398577E+08, 5.423204567879426E+07,
2461645.500000000, A.D. 2027-Aug-28 00:00:00.0000, -3.880534480135960E+08, 2.794377335566953E+08, 5.080906110804456E+07,
2461652.500000000, A.D. 2027-Sep-04 00:00:00.0000, -3.937550315251251E+08, 2.715528102355023E+08, 4.736386090147057E+07,
2461659.500000000, A.D. 2027-Sep-11 00:00:00.0000, -3.992847795214541E+08, 2.635491911248952E+08, 4.389792156804511E+07,
2461666.500000000, A.D. 2027-Sep-18 00:00:00.0000, -4.046400385486863E+08, 2.554302189767953E+08, 4.041273465962546E+07,
2461673.500000000, A.D. 2027-Sep-25 00:00:00.0000, -4.098182377562764E+08, 2.471993048036987E+08, 3.690980585965157E+07,
2461680.500000000, A.D. 2027-Oct-02 00:00:00.0000, -4.148168910454733E+08, 2.388599258760580E+08, 3.339065404388559E+07,
2461687.500000000, A.D. 2027-Oct-09 00:00:00.0000, -4.196335991466576E+08, 2.304156235580236E+08, 2.985681031140605E+07,
2461694.500000000, A.D. 2027-Oct-16 00:00:00.0000, -4.242660515582932E+08, 2.218700009292605E+08, 2.630981697631662E+07,
2461701.500000000, A.D. 2027-Oct-23 00:00:00.0000, -4.287120280835474E+08, 2.132267201896430E+08, 2.275122649677923E+07,
2461708.500000000, A.D. 2027-Oct-30 00:00:00.0000, -4.329693995859455E+08, 2.044895004595536E+08, 1.918260035799646E+07,
2461715.500000000, A.D. 2027-Nov-06 00:00:00.0000, -4.370361291243224E+08, 1.956621171063099E+08, 1.560550810935068E+07,
2461722.500000000, A.D. 2027-Nov-13 00:00:00.0000, -4.409102754506881E+08, 1.867484005238661E+08, 1.202152656955746E+07,
2461729.500000000, A.D. 2027-Nov-20 00:00:00.0000, -4.445899959663436E+08, 1.777522321845134E+08, 8.432238756635927E+06,
2461736.500000000, A.D. 2027-Nov-27 00:00:00.0000, -4.480735475137635E+08, 1.686775409301627E+08, 4.839232638422593E+06,
2461743.500000000, A.D. 2027-Dec-04 00:00:00.0000, -4.513592870249822E+08, 1.595283004193091E+08, 1.244099965834938E+06,
2461750.500000000, A.D. 2027-Dec-11 00:00:00.0000, -4.544456725760329E+08, 1.503085267696024E+08, -2.351564837464258E+06,
2461757.500000000, A.D. 2027-Dec-18 00:00:00.0000, -4.573312645706779E+08, 1.410222760616832E+08, -5.946165779907197E+06,
2461764.500000000, A.D. 2027-Dec-25 00:00:00.0000, -4.600147268990956E+08, 1.316736417066439E+08, -9.538106413359098E+06,
2461771.500000000, A.D. 2028-Jan-01 00:00:00.0000, -4.624948280279164E+08, 1.222667516960676E+08, -1.312579095137081E+07,
$$EOE